CCSDS_OMM_VERS = 2.0
CREATION_DATE  = 
ORIGINATOR     = 

OBJECT_NAME    = CZ-2C R/B
OBJECT_ID      = 2022-132E
CENTER_NAME    = EARTH
REF_FRAME      = TEME
TIME_SYSTEM    = UTC
MEAN_ELEMENT_THEORY = SGP/SGP4

EPOCH          = 2025-12-04T07:15:04.656672
MEAN_MOTION    = 15.54018949
ECCENTRICITY   = .00237966
INCLINATION    = 97.2940
RA_OF_ASC_NODE = 334.3443
ARG_OF_PERICENTER = 84.5503
MEAN_ANOMALY   = 275.8465

EPHEMERIS_TYPE = 0
CLASSIFICATION_TYPE = U
NORAD_CAT_ID   = 54039
ELEMENT_SET_NO = 999
REV_AT_EPOCH   = 17552
BSTAR          = .10190418E-2
MEAN_MOTION_DOT = .67078E-3
MEAN_MOTION_DDOT = 0

CCSDS_OMM_VERS = 2.0
CREATION_DATE  = 
ORIGINATOR     = 

OBJECT_NAME    = GSLV R/B
OBJECT_ID      = 2022-138AN
CENTER_NAME    = EARTH
REF_FRAME      = TEME
TIME_SYSTEM    = UTC
MEAN_ELEMENT_THEORY = SGP/SGP4

EPOCH          = 2025-12-04T02:14:58.443936
MEAN_MOTION    = 14.96060795
ECCENTRICITY   = .00233002
INCLINATION    = 87.3835
RA_OF_ASC_NODE = 198.3684
ARG_OF_PERICENTER = 134.1257
MEAN_ANOMALY   = 226.1897

EPHEMERIS_TYPE = 0
CLASSIFICATION_TYPE = U
NORAD_CAT_ID   = 54149
ELEMENT_SET_NO = 999
REV_AT_EPOCH   = 16963
BSTAR          = .5443549E-3
MEAN_MOTION_DOT = .6173E-4
MEAN_MOTION_DDOT = 0

CCSDS_OMM_VERS = 2.0
CREATION_DATE  = 
ORIGINATOR     = 

OBJECT_NAME    = XRISM
OBJECT_ID      = 2023-137A
CENTER_NAME    = EARTH
REF_FRAME      = TEME
TIME_SYSTEM    = UTC
MEAN_ELEMENT_THEORY = SGP/SGP4

EPOCH          = 2025-12-04T05:49:07.962528
MEAN_MOTION    = 15.10216971
ECCENTRICITY   = .00076567
INCLINATION    = 30.9997
RA_OF_ASC_NODE = 180.4036
ARG_OF_PERICENTER = 159.4813
MEAN_ANOMALY   = 200.6134

EPHEMERIS_TYPE = 0
CLASSIFICATION_TYPE = U
NORAD_CAT_ID   = 57800
ELEMENT_SET_NO = 999
REV_AT_EPOCH   = 12334
BSTAR          = .5017974E-3
MEAN_MOTION_DOT = .8508E-4
MEAN_MOTION_DDOT = 0

CCSDS_OMM_VERS = 2.0
CREATION_DATE  = 
ORIGINATOR     = 

OBJECT_NAME    = ACS3
OBJECT_ID      = 2024-077B
CENTER_NAME    = EARTH
REF_FRAME      = TEME
TIME_SYSTEM    = UTC
MEAN_ELEMENT_THEORY = SGP/SGP4

EPOCH          = 2025-12-04T03:47:43.245888
MEAN_MOTION    = 13.84881818
ECCENTRICITY   = .00776939
INCLINATION    = 97.2751
RA_OF_ASC_NODE = 295.6785
ARG_OF_PERICENTER = 356.8851
MEAN_ANOMALY   = 3.1816

EPHEMERIS_TYPE = 0
CLASSIFICATION_TYPE = U
NORAD_CAT_ID   = 59588
ELEMENT_SET_NO = 999
REV_AT_EPOCH   = 8095
BSTAR          = .58546365E-1
MEAN_MOTION_DOT = .68182E-3
MEAN_MOTION_DDOT = 0

