CZ-2C R/B               
1 54039U 22132E   25338.30213723  .00067078  00000+0  10190-2 0  9993
2 54039  97.2940 334.3443 0023796  84.5503 275.8465 15.54018949175523
GSLV R/B                
1 54149U 22138AN  25338.09373199  .00006173  00000+0  54435-3 0  9991
2 54149  87.3835 198.3684 0023300 134.1257 226.1897 14.96060795169636
XRISM                   
1 57800U 23137A   25338.24245327  .00008508  00000+0  50180-3 0  9993
2 57800  30.9997 180.4036 0007656 159.4813 200.6134 15.10216971123348
ACS3                    
1 59588U 24077B   25338.15813942  .00068182  00000+0  58546-1 0  9992
2 59588  97.2751 295.6785 0077693 356.8851   3.1816 13.84881818 80959
